[{"OBJECT_NAME":"IRIDIUM 143","OBJECT_ID":"2018-030K","EPOCH":"2026-03-09T17:00:55.388160","MEAN_MOTION":14.34218064,"ECCENTRICITY":0.00020577,"INCLINATION":86.4015,"RA_OF_ASC_NODE":332.16,"ARG_OF_PERICENTER":91.1443,"MEAN_ANOMALY":268.9989,"EPHEMERIS_TYPE":0,"CLASSIFICATION_TYPE":"U","NORAD_CAT_ID":43258,"ELEMENT_SET_NO":999,"REV_AT_EPOCH":41583,"BSTAR":2.1067696e-5,"MEAN_MOTION_DOT":7.9e-7,"MEAN_MOTION_DDOT":0},{"OBJECT_NAME":"NOAA 16 DEB","OBJECT_ID":"2000-055KS","EPOCH":"2026-03-09T03:20:20.380128","MEAN_MOTION":14.30748101,"ECCENTRICITY":0.00196239,"INCLINATION":98.6789,"RA_OF_ASC_NODE":133.7856,"ARG_OF_PERICENTER":88.6317,"MEAN_ANOMALY":271.7114,"EPHEMERIS_TYPE":0,"CLASSIFICATION_TYPE":"U","NORAD_CAT_ID":41413,"ELEMENT_SET_NO":999,"REV_AT_EPOCH":51992,"BSTAR":0.0024106858,"MEAN_MOTION_DOT":6.285e-5,"MEAN_MOTION_DDOT":0}]
